OBJECT_NAME,OBJECT_ID,EPOCH,MEAN_MOTION,ECCENTRICITY,INCLINATION,RA_OF_ASC_NODE,ARG_OF_PERICENTER,MEAN_ANOMALY,EPHEMERIS_TYPE,CLASSIFICATION_TYPE,NORAD_CAT_ID,ELEMENT_SET_NO,REV_AT_EPOCH,BSTAR,MEAN_MOTION_DOT,MEAN_MOTION_DDOT
CUTE-1 (CO-55),2003-031E,2026-07-20T23:12:05.361408,14.24353883,.00108674,98.6745,210.1018,87.8923,272.3500,0,U,27844,999,19648,.94328469E-4,.174E-5,0
CUBESAT XI-IV (CO-57),2003-031J,2026-07-21T11:08:22.386336,14.23636890,.00107004,98.6777,210.2780,103.0346,257.2027,0,U,27848,999,19625,.94003799E-4,.171E-5,0
CUBESAT XI-V,2005-043F,2026-07-21T08:59:40.719840,14.72712744,.0015344,98.3024,358.7230,97.2573,263.0378,0,U,28895,999,10678,.15413557E-3,.932E-5,0
CUTE-1.7+APD II (CO-65),2008-021C,2026-07-21T14:00:39.668544,15.09735529,.00068929,97.8297,184.7297,272.1964,87.8475,0,U,32785,999,99038,.25384226E-3,.4029E-4,0
CANX-2,2008-021H,2026-07-21T09:06:03.319776,15.05828715,.00086138,97.8661,182.8312,293.0551,66.9766,0,U,32790,999,98995,.15696636E-3,.2213E-4,0
SEEDS II (CO-66),2008-021J,2026-07-21T11:05:37.720896,15.33809298,.00037431,97.7536,202.0274,143.8472,216.3023,0,U,32791,999,99254,.53390583E-3,.17397E-3,0
SWISSCUBE,2009-051B,2026-07-21T05:45:20.945664,14.62538248,.00080636,98.4000,110.7173,103.0186,257.1915,0,U,35932,999,89413,.13969E-3,.659E-5,0
BEESAT-1,2009-051C,2026-07-21T14:37:27.258528,14.61768730,.00064293,98.3928,110.6562,113.2480,246.9398,0,U,35933,999,89421,.12384909E-3,.569E-5,0
ITUPSAT1,2009-051E,2026-07-21T11:50:30.081408,14.60484966,.0008429,98.4012,109.6936,125.7082,234.4903,0,U,35935,999,89374,.11752246E-3,.521E-5,0
TISAT 1,2010-035E,2026-07-21T14:18:15.518016,15.32897907,.00048236,98.0708,152.2342,107.8741,252.3026,0,U,36799,999,87297,.63721602E-3,.20197E-3,0
STRAND-1,2013-009E,2026-07-21T10:46:29.071776,14.37181358,.00096811,98.3940,21.8430,124.3743,235.8361,0,U,39090,999,70198,.78007345E-4,.189E-5,0
BRITE-AUSTRIA,2013-009F,2026-07-21T11:26:27.347424,14.36554203,.00110797,98.4014,21.0669,133.3553,226.8559,0,U,39091,999,70197,.52572133E-4,.112E-5,0
NEE-01 PEGASO,2013-018B,2026-07-21T11:54:12.278880,14.93810593,.0013511,98.1266,347.7913,55.4403,304.8089,0,U,39151,999,71582,.18805642E-3,.1936E-4,0
POPACS 2,2013-055E,2026-07-21T04:28:12.081216,14.92193040,.04144141,80.9903,105.2569,84.6661,280.1681,0,U,39269,999,66828,.29070188E-3,.1781E-3,-.90713E-6
POPACS 3,2013-055F,2026-07-21T09:34:42.384288,14.56760132,.05479581,81.0011,192.0695,325.7431,30.9510,0,U,39270,999,64353,.20415006E-3,.8563E-4,0
ZACUBE-1 (TSHEPISOSAT),2013-066B,2026-07-20T20:47:42.553536,15.01347026,.00440791,97.7999,164.3670,137.0238,223.4444,0,U,39417,999,68578,.14536999E-3,.1847E-4,0
WNISAT-1,2013-066H,2026-07-21T09:16:14.649024,14.58129116,.01641608,97.7244,349.1224,123.9436,237.7493,0,U,39423,999,67171,.15102501E-3,.79E-5,0
TRITON-1,2013-066M,2026-07-21T16:01:51.826944,14.81810808,.00910768,97.8212,111.6857,121.2505,239.7670,0,U,39427,999,67919,.16354569E-3,.1331E-4,0
GOMX-1,2013-066Q,2026-07-21T12:04:59.002752,14.69549979,.0127696,97.6468,40.8007,327.8862,31.4611,0,U,39430,999,67495,.79448601E-4,.481E-5,0
CUBEBUG-2 (LO-74),2013-066AA,2026-07-21T08:34:07.123296,14.93994868,.00555093,97.8921,151.4890,274.4580,85.0299,0,U,39440,999,68209,.21189267E-3,.2264E-4,0
NEE-02 KRYSAOR,2013-066AB,2026-07-21T06:21:44.862048,14.86755362,.00648886,97.8896,141.2413,319.1529,40.4833,0,U,39441,999,68126,.16289771E-3,.1446E-4,0
FUNCUBE-1 (AO-73),2013-066AE,2026-07-21T09:21:20.708928,15.09875397,.0038113,97.8302,174.5633,87.5834,272.9757,0,U,39444,999,68482,.37014469E-3,.6028E-4,0
UWE-3,2013-066AG,2026-07-21T08:50:45.003552,14.97229762,.00477439,97.8727,158.6819,203.3871,156.5179,0,U,39446,999,68269,.24278441E-3,.2812E-4,0
BRITE-CA1 (TORONTO),2014-033L,2026-07-21T08:23:05.265600,14.72731418,.00789328,97.9778,330.6555,166.5957,193.7373,0,U,40020,999,64724,.12831632E-3,.807E-5,0
DUCHIFAT-1,2014-033M,2026-07-21T14:25:09.036192,15.72373633,.00035964,98.0415,266.8095,228.2651,131.8303,0,U,40021,999,66114,.12057999E-2,.162508E-2,0
NANOSATC-BR1,2014-033Q,2026-07-21T13:28:32.491488,15.32465614,.00050541,98.0712,238.0210,81.5416,278.6397,0,U,40024,999,65924,.5283777E-3,.16499E-3,0
QB50P1,2014-033R,2026-07-21T11:33:24.182496,15.18729218,.00105476,98.0974,216.0449,106.4326,253.8066,0,U,40025,999,65823,.33714792E-3,.6934E-4,0
QB50P2,2014-033Y,2026-07-20T23:23:06.435456,15.15553719,.00091447,98.0771,200.9707,67.6874,292.5326,0,U,40032,999,65778,.24765819E-3,.4626E-4,0
PERSEUS-M2,2014-033AD,2026-07-21T14:04:38.955936,14.95592488,.00114393,97.9978,153.8332,178.9554,181.1692,0,U,40037,999,65592,.8121218E-5,.29E-6,0
PERSEUS-M1,2014-033AF,2026-07-21T08:32:40.595424,14.95727732,.00113783,97.9653,147.0534,176.3396,183.7909,0,U,40039,999,65574,.6417887E-4,.655E-5,0
